{
  "type": "FeatureCollection",
  "features": [
    {
      "type": "Feature",
      "properties": {
        "norad_id": 38250,
        "name": "BEIDOU-2 M3 (C11)",
        "group": "beidou",
        "lat": -43.31919955452552,
        "lon": 170.9934035806983,
        "alt_km": 21479.244911323665,
        "timestamp": "2025-12-06T05:40:09.506557+00:00",
        "meta_object_name": "BEIDOU-2 M3 (C11)",
        "meta_object_id": "2012-018A",
        "meta_epoch": "2025-12-04T06:32:53.001888",
        "meta_mean_motion": 1.86229694,
        "meta_eccentricity": 0.0024462,
        "meta_inclination": 55.9274,
        "meta_ra_of_asc_node": 311.4423,
        "meta_arg_of_pericenter": 273.73,
        "meta_mean_anomaly": 85.9745,
        "meta_ephemeris_type": 0,
        "meta_classification_type": "U",
        "meta_norad_cat_id": 38250,
        "meta_element_set_no": 999,
        "meta_rev_at_epoch": 9231,
        "meta_bstar": 0,
        "meta_mean_motion_dot": -6.8e-07,
        "meta_mean_motion_ddot": 0,
        "tle_line1": "1 38250U 12018A   25338.27283567 -.00000068  00000+0  00000+0 0  9994",
        "tle_line2": "2 38250  55.9274 311.4423 0024462 273.7300  85.9745  1.86229694 92310"
      },
      "geometry": {
        "type": "Point",
        "coordinates": [
          170.9934035806983,
          -43.31919955452552
        ]
      }
    },
    {
      "type": "Feature",
      "properties": {
        "norad_id": 38251,
        "name": "BEIDOU-2 M4 (C12)",
        "group": "beidou",
        "lat": -54.09179252662696,
        "lon": -119.0892894251086,
        "alt_km": 21490.570735346308,
        "timestamp": "2025-12-06T05:40:09.506568+00:00",
        "meta_object_name": "BEIDOU-2 M4 (C12)",
        "meta_object_id": "2012-018B",
        "meta_epoch": "2025-12-04T04:55:01.467840",
        "meta_mean_motion": 1.86229385,
        "meta_eccentricity": 0.0015607,
        "meta_inclination": 55.8289,
        "meta_ra_of_asc_node": 310.6742,
        "meta_arg_of_pericenter": 276.8686,
        "meta_mean_anomaly": 82.9379,
        "meta_ephemeris_type": 0,
        "meta_classification_type": "U",
        "meta_norad_cat_id": 38251,
        "meta_element_set_no": 999,
        "meta_rev_at_epoch": 9231,
        "meta_bstar": 0,
        "meta_mean_motion_dot": -6.8e-07,
        "meta_mean_motion_ddot": 0,
        "tle_line1": "1 38251U 12018B   25338.20487810 -.00000068  00000+0  00000+0 0  9995",
        "tle_line2": "2 38251  55.8289 310.6742 0015607 276.8686  82.9379  1.86229385 92310"
      },
      "geometry": {
        "type": "Point",
        "coordinates": [
          -119.0892894251086,
          -54.09179252662696
        ]
      }
    },
    {
      "type": "Feature",
      "properties": {
        "norad_id": 38775,
        "name": "BEIDOU-2 M6 (C14)",
        "group": "beidou",
        "lat": 48.58507265373883,
        "lon": -159.58412482050633,
        "alt_km": 21541.59409304118,
        "timestamp": "2025-12-06T05:40:09.506580+00:00",
        "meta_object_name": "BEIDOU-2 M6 (C14)",
        "meta_object_id": "2012-050B",
        "meta_epoch": "2025-12-03T09:05:34.856160",
        "meta_mean_motion": 1.86230686,
        "meta_eccentricity": 0.00108899,
        "meta_inclination": 56.3706,
        "meta_ra_of_asc_node": 69.3782,
        "meta_arg_of_pericenter": 346.3356,
        "meta_mean_anomaly": 13.638,
        "meta_ephemeris_type": 0,
        "meta_classification_type": "U",
        "meta_norad_cat_id": 38775,
        "meta_element_set_no": 999,
        "meta_rev_at_epoch": 8966,
        "meta_bstar": 0,
        "meta_mean_motion_dot": -5e-07,
        "meta_mean_motion_ddot": 0,
        "tle_line1": "1 38775U 12050B   25337.37887565 -.00000050  00000+0  00000+0 0  9991",
        "tle_line2": "2 38775  56.3706  69.3782 0010889 346.3356  13.6380  1.86230686 89660"
      },
      "geometry": {
        "type": "Point",
        "coordinates": [
          -159.58412482050633,
          48.58507265373883
        ]
      }
    },
    {
      "type": "Feature",
      "properties": {
        "norad_id": 38953,
        "name": "BEIDOU-2 G6 (C02)",
        "group": "beidou",
        "lat": 0.7424853832593249,
        "lon": -115.69109469547548,
        "alt_km": 35802.49699283159,
        "timestamp": "2025-12-06T05:40:09.506591+00:00",
        "meta_object_name": "BEIDOU-2 G6 (C02)",
        "meta_object_id": "2012-059A",
        "meta_epoch": "2025-12-05T00:23:51.463104",
        "meta_mean_motion": 1.00270434,
        "meta_eccentricity": 0.00074327,
        "meta_inclination": 3.9283,
        "meta_ra_of_asc_node": 75.5783,
        "meta_arg_of_pericenter": 289.5044,
        "meta_mean_anomaly": 159.0083,
        "meta_ephemeris_type": 0,
        "meta_classification_type": "U",
        "meta_norad_cat_id": 38953,
        "meta_element_set_no": 999,
        "meta_rev_at_epoch": 4796,
        "meta_bstar": 0,
        "meta_mean_motion_dot": -1.65e-06,
        "meta_mean_motion_ddot": 0,
        "tle_line1": "1 38953U 12059A   25339.01656786 -.00000165  00000+0  00000+0 0  9997",
        "tle_line2": "2 38953   3.9283  75.5783 0007432 289.5044 159.0083  1.00270434 47961"
      },
      "geometry": {
        "type": "Point",
        "coordinates": [
          -115.69109469547548,
          0.7424853832593249
        ]
      }
    },
    {
      "type": "Feature",
      "properties": {
        "norad_id": 40748,
        "name": "BEIDOU-3S M2S (C58)",
        "group": "beidou",
        "lat": 28.649585288192824,
        "lon": 106.21003618170153,
        "alt_km": 21543.888727972222,
        "timestamp": "2025-12-06T05:40:09.506603+00:00",
        "meta_object_name": "BEIDOU-3S M2S (C58)",
        "meta_object_id": "2015-037A",
        "meta_epoch": "2025-12-04T09:50:19.277376",
        "meta_mean_motion": 1.86229056,
        "meta_eccentricity": 0.00124004,
        "meta_inclination": 55.0462,
        "meta_ra_of_asc_node": 308.7497,
        "meta_arg_of_pericenter": 267.6151,
        "meta_mean_anomaly": 92.2259,
        "meta_ephemeris_type": 0,
        "meta_classification_type": "U",
        "meta_norad_cat_id": 40748,
        "meta_element_set_no": 999,
        "meta_rev_at_epoch": 7049,
        "meta_bstar": 0,
        "meta_mean_motion_dot": -6.8e-07,
        "meta_mean_motion_ddot": 0,
        "tle_line1": "1 40748U 15037A   25338.40994534 -.00000068  00000+0  00000+0 0  9991",
        "tle_line2": "2 40748  55.0462 308.7497 0012400 267.6151  92.2259  1.86229056 70498"
      },
      "geometry": {
        "type": "Point",
        "coordinates": [
          106.21003618170153,
          28.649585288192824
        ]
      }
    },
    {
      "type": "Feature",
      "properties": {
        "norad_id": 40749,
        "name": "BEIDOU-3S M1S (C57)",
        "group": "beidou",
        "lat": -8.593290171866073,
        "lon": -57.41101140976819,
        "alt_km": 21517.955814548353,
        "timestamp": "2025-12-06T05:40:09.506614+00:00",
        "meta_object_name": "BEIDOU-3S M1S (C57)",
        "meta_object_id": "2015-037B",
        "meta_epoch": "2025-12-01T22:57:46.412352",
        "meta_mean_motion": 1.86253762,
        "meta_eccentricity": 0.0003321,
        "meta_inclination": 55.0451,
        "meta_ra_of_asc_node": 308.8236,
        "meta_arg_of_pericenter": 355.9906,
        "meta_mean_anomaly": 3.9975,
        "meta_ephemeris_type": 0,
        "meta_classification_type": "U",
        "meta_norad_cat_id": 40749,
        "meta_element_set_no": 999,
        "meta_rev_at_epoch": 7045,
        "meta_bstar": 0,
        "meta_mean_motion_dot": -6e-07,
        "meta_mean_motion_ddot": 0,
        "tle_line1": "1 40749U 15037B   25335.95678718 -.00000060  00000+0  00000+0 0  9994",
        "tle_line2": "2 40749  55.0451 308.8236 0003321 355.9906   3.9975  1.86253762 70451"
      },
      "geometry": {
        "type": "Point",
        "coordinates": [
          -57.41101140976819,
          -8.593290171866073
        ]
      }
    },
    {
      "type": "Feature",
      "properties": {
        "norad_id": 40938,
        "name": "BEIDOU-3S IGSO-2S (C56)",
        "group": "beidou",
        "lat": -3.464999595370346,
        "lon": -101.8920751341418,
        "alt_km": 36038.92931270435,
        "timestamp": "2025-12-06T05:40:09.506626+00:00",
        "meta_object_name": "BEIDOU-3S IGSO-2S (C56)",
        "meta_object_id": "2015-053A",
        "meta_epoch": "2025-12-03T17:17:32.013024",
        "meta_mean_motion": 1.0027148,
        "meta_eccentricity": 0.00611089,
        "meta_inclination": 49.5266,
        "meta_ra_of_asc_node": 261.1136,
        "meta_arg_of_pericenter": 188.632,
        "meta_mean_anomaly": 338.5579,
        "meta_ephemeris_type": 0,
        "meta_classification_type": "U",
        "meta_norad_cat_id": 40938,
        "meta_element_set_no": 999,
        "meta_rev_at_epoch": 3739,
        "meta_bstar": 0,
        "meta_mean_motion_dot": -1.53e-06,
        "meta_mean_motion_ddot": 0,
        "tle_line1": "1 40938U 15053A   25337.72050941 -.00000153  00000+0  00000+0 0  9994",
        "tle_line2": "2 40938  49.5266 261.1136 0061108 188.6320 338.5579  1.00271480 37397"
      },
      "geometry": {
        "type": "Point",
        "coordinates": [
          -101.8920751341418,
          -3.464999595370346
        ]
      }
    }
  ]
}